SARSAT 7 (NOAA 15)      
1 25338U 98030A   22347.60242947  .00000141  00000+0  77186-4 0  9991
2 25338  98.6270  14.6484 0011187 131.8617 228.3520 14.26207143278804
GPS BIIR-08             
1 27663U 03005A   22347.55665001 -.00000018  00000+0  00000+0 0  9996
2 27663  55.3967 265.9460 0129972  41.9136 171.9175  2.00554106145607
GPS BIIR-11             
1 28190U 04009A   22347.28938174 -.00000058  00000+0  00000+0 0  9995
2 28190  55.8897 326.9771 0088241 128.3322  47.0257  2.00556302137237
GPS BIIR-13             
1 28474U 04045A   22347.50916323 -.00000081  00000+0  00000+0 0  9993
2 28474  55.4018  16.2742 0202885 282.3762 264.2915  2.00561714132727
SARSAT 10 (NOAA 18)     
1 28654U 05018A   22347.59799757  .00000202  00000+0  13257-3 0  9999
2 28654  98.9318  57.7342 0014366 181.5770 178.5359 14.12820982905360
GPS BIIR-14M            
1 28874U 05038A   22347.03602073 -.00000058  00000+0  00000+0 0  9996
2 28874  55.9492 324.4282 0140727 277.0075 105.1492  2.00563874126128
METEOSAT-9 (MSG-2)      
1 28912U 05049B   22346.97279510  .00000143  00000+0  00000+0 0  9993
2 28912   6.4229  65.1073 0001024 209.1132 203.3057  1.00269194 62183
GOES 13                 
1 29155U 06018A   22347.58911573  .00000055  00000+0  00000+0 0  9992
2 29155   1.0324  93.4735 0006670 151.9631 110.3179  1.00275156 60656
GPS BIIR-16M            
1 29601U 06052A   22347.07328935 -.00000016  00000+0  00000+0 0  9992
2 29601  55.4093 264.9110 0085002  75.2397 285.7456  2.00560895117693
GPS BIIR-17M            
1 32260U 07047A   22347.37566609  .00000056  00000+0  00000+0 0  9990
2 32260  53.3686 133.1264 0145449  66.5133 294.9851  2.00565739111106
GPS BIIR-18M            
1 32384U 07062A   22347.43709917 -.00000056  00000+0  00000+0 0  9993
2 32384  56.0734 325.1973 0019658 146.3258  25.7125  2.00571633109802
SARSAT 12 (NOAA 19)     
1 33591U 09005A   22347.54902226  .00000181  00000+0  12263-3 0  9999
2 33591  99.1274  25.2727 0014532  48.0351 312.2056 14.12650444713737
GOES 14                 
1 35491U 09033A   22347.56132868 -.00000076  00000+0  00000+0 0  9996
2 35491   0.1649 259.1262 0018024 326.4049 314.5715  1.00271370 49307
GOES 15                 
1 36411U 10008A   22347.55137330  .00000067  00000+0  00000+0 0  9990
2 36411   0.1213 284.3384 0002902 289.9409 298.9089  1.00283043 46804
GPS BIIF-2              
1 37753U 11036A   22347.55712872 -.00000079  00000+0  00000+0 0  9996
2 37753  56.6747  21.7402 0118966  53.0968 354.0738  2.00566515 83573
GSAT0101 (GALILEO-PFM)  
1 37846U 11060A   22343.64125287 -.00000086  00000+0  00000+0 0  9998
2 37846  57.0510  16.5802 0001816 315.9386  44.1075  1.70475516 69205
GSAT0102 (GALILEO-FM2)  
1 37847U 11060B   22346.49910564 -.00000077  00000+0  00000+0 0  9995
2 37847  57.0524  16.5019 0004030 303.5089  57.3507  1.70475479 69388
LUCH 5A                 
1 37951U 11074B   22347.26650480 -.00000032  00000+0  00000+0 0  9991
2 37951   5.4678  94.3247 0002783 140.9038 109.4588  1.00272085 40331
METEOSAT-10 (MSG-3)     
1 38552U 12035B   22347.22005912  .00000079  00000+0  00000+0 0  9997
2 38552   1.8164  49.8723 0001338 187.2973 293.4791  1.00268723 38005
SARSAT 13 (METOP-B)     
1 38771U 12049A   22347.64228394  .00000119  00000+0  74370-4 0  9993
2 38771  98.7070  44.8671 0000801 133.3155  19.9889 14.21484075531187
GPS BIIF-3              
1 38833U 12053A   22346.97734135  .00000059  00000+0  00000+0 0  9994
2 38833  53.5184 196.0435 0133789  49.1816 312.0409  2.00563961 73721
GSAT0103 (GALILEO-FM3)  
1 38857U 12055A   22344.85310692  .00000048  00000+0  00000+0 0  9993
2 38857  55.1920 136.8479 0002300 229.6014 130.3412  1.70473705 63256
GSAT0104 (GALILEO-FM4)  
1 38858U 12055B   22344.82294140  .00000048  00000+0  00000+0 0  9990
2 38858  55.1928 136.8503 0001687 152.2922 207.6794  1.70473970 63119
GPS BIIF-4              
1 39166U 13023A   22347.33420219 -.00000055  00000+0  00000+0 0  9995
2 39166  55.5703 320.7192 0107904  38.2066 322.5533  2.00565288 70176
INSAT-3D                
1 39216U 13038B   22347.30604785 -.00000138  00000+0  00000+0 0  9998
2 39216   0.0247  97.7388 0002076 158.6987  17.7866  1.00271161 34244
GPS BIIF-5              
1 39533U 14008A   22346.83878961  .00000053  00000+0  00000+0 0  9999
2 39533  53.6090 201.5751 0060689 209.0330 150.7033  2.00563610 63961
LUCH 5V                 
1 39727U 14023A   22347.52823832 -.00000252  00000+0  00000+0 0  9997
2 39727   1.9282  77.0325 0003275 206.8801  83.2177  1.00271542 31507
GPS BIIF-6              
1 39741U 14026A   22347.11692963 -.00000081  00000+0  00000+0 0  9990
2 39741  56.6330  21.2823 0029376 305.1775  54.6048  2.00576084 62829
GPS BIIF-7              
1 40105U 14045A   22347.20630484  .00000065  00000+0  00000+0 0  9998
2 40105  54.7357 139.6656 0024305 113.2015 247.0371  2.00559341 60364
GSAT0201 (GALILEO 5)    
1 40128U 14050A   22346.07878387 -.00000087  00000+0  00000+0 0  9994
2 40128  50.1588 325.2021 1615026 130.4824 244.7916  1.85519634 54512
GSAT0202 (GALILEO 6)    
1 40129U 14050B   22343.10518143 -.00000104  00000+0  00000+0 0  9997
2 40129  50.1835 324.3860 1612499 131.1887 243.9152  1.85520280 56623
GPS BIIF-8              
1 40294U 14068A   22347.57422019 -.00000029  00000+0  00000+0 0  9996
2 40294  55.9569  80.8701 0042238  58.2794 302.1484  2.00553914 59508
GLONASS-K 2             
1 40315U 14075A   22347.05016758  .00000024  00000+0  00000+0 0  9994
2 40315  63.6641 234.9224 0017678 208.3882 331.9496  2.13101316 62536
GPS BIIF-9              
1 40534U 15013A   22347.21471742 -.00000011  00000+0  00000+0 0  9993
2 40534  53.5976 257.2875 0075227  22.0368 338.3420  2.00571034 56111
GSAT0203 (GALILEO 7)    
1 40544U 15017A   22346.94014603 -.00000076  00000+0  00000+0 0  9997
2 40544  56.8466  16.4989 0005154 258.2111 101.7873  1.70476152 47344
GSAT0204 (GALILEO 8)    
1 40545U 15017B   22347.19331664 -.00000075  00000+0  00000+0 0  9994
2 40545  56.8533  16.5052 0004822 244.2196 115.7866  1.70475779 10397
GPS BIIF-10             
1 40730U 15033A   22346.87439132 -.00000057  00000+0  00000+0 0  9991
2 40730  55.0648 319.4805 0079250   8.4093 351.7207  2.00568990 54273
METEOSAT-11 (MSG-4)     
1 40732U 15034A   22347.21814148  .00000013  00000+0  00000+0 0  9998
2 40732   0.4755 353.5331 0000663 114.5064  52.3719  1.00271938 27162
GSAT0205 (GALILEO 9)    
1 40889U 15045A   22346.37462121 -.00000001  00000+0  00000+0 0  9997
2 40889  55.5129 257.0497 0005845  16.1440 343.9351  1.70472906 45148
GSAT0206 (GALILEO 10)   
1 40890U 15045B   22347.18194583  .00000000  00000+0  00000+0 0  9991
2 40890  55.5114 257.0231 0004136   8.3908 351.6768  1.70472986 45184
GPS BIIF-11             
1 41019U 15062A   22347.42546000 -.00000029  00000+0  00000+0 0  9998
2 41019  55.9435  80.7220 0084380 219.0690 140.3365  2.00562507 52126
ELEKTRO-L 2             
1 41105U 15074A   22347.43047545 -.00000098  00000+0  00000+0 0  9994
2 41105   3.4381  86.0155 0002832 149.3300 347.2652  1.00272403 25669
GSAT0209 (GALILEO 12)   
1 41174U 15079A   22344.42207489  .00000045  00000+0  00000+0 0  9997
2 41174  55.2088 136.5648 0001696 332.6426  27.3104  1.70474674 42876
GSAT0208 (GALILEO 11)   
1 41175U 15079B   22345.22816823  .00000049  00000+0  00000+0 0  9999
2 41175  55.2077 136.5410 0001026 346.3745  13.5855  1.70474614 43308
GPS BIIF-12             
1 41328U 16007A   22347.51228840  .00000069  00000+0  00000+0 0  9993
2 41328  54.9483 140.3679 0064929 230.0237 129.3892  2.00562396 50136
GSAT0211 (GALILEO 14)   
1 41549U 16030A   22347.10760062  .00000001  00000+0  00000+0 0  9992
2 41549  55.6577 256.9771 0004702 343.0534  16.9917  1.70473015 40816
GSAT0210 (GALILEO 13)   
1 41550U 16030B   22345.05334516 -.00000003  00000+0  00000+0 0  9990
2 41550  55.6585 257.0348 0003338 319.0094  41.0234  1.70477404 40757
INSAT-3DR               
1 41752U 16054A   22347.51990674 -.00000060  00000+0  00000+0 0  9999
2 41752   0.0878  96.2362 0014041 173.1906  73.9381  1.00271613 22960
GSAT0207 (GALILEO 15)   
1 41859U 16069A   22346.47587643  .00000055  00000+0  00000+0 0  9998
2 41859  54.8710 136.6456 0001628 293.8271  66.1221  1.70474666 37531
GSAT0212 (GALILEO 16)   
1 41860U 16069B   22346.32957542  .00000054  00000+0  00000+0 0  9992
2 41860  54.8683 136.6467 0001316  29.6659 330.3074  1.70472486 37780
GSAT0213 (GALILEO 17)   
1 41861U 16069C   22344.93501437  .00000047  00000+0  00000+0 0  9998
2 41861  54.8700 136.6910 0001969 243.1918 116.7507  1.70473455 37626
GSAT0214 (GALILEO 18)   
1 41862U 16069D   22345.08219416  .00000048  00000+0  00000+0 0  9990
2 41862  54.8689 136.6814 0001124 229.5765 130.3764  1.70473467 37751
GOES 16                 
1 41866U 16071A   22347.49009630 -.00000231  00000+0  00000+0 0  9994
2 41866   0.0721 253.9859 0000955  42.7323 246.6914  1.00272254 22254
GSAT-17                 
1 42815U 17040B   22347.52866795 -.00000240  00000+0  00000+0 0  9993
2 42815   0.0167  72.5166 0006884 186.4185 107.0922  1.00270822 19937
GSAT0215 (GALILEO 19)   
1 43055U 17079A   22344.98570167 -.00000003  00000+0  00000+0 0  9991
2 43055  55.6356 256.8653 0002676 319.3622  40.6759  1.70473737 31094
GSAT0216 (GALILEO 20)   
1 43056U 17079B   22345.86431058 -.00000001  00000+0  00000+0 0  9993
2 43056  55.6347 256.8409 0005061 297.4726  62.5363  1.70474891 31126
GSAT0217 (GALILEO 21)   
1 43057U 17079C   22347.25784947  .00000001  00000+0  00000+0 0  9996
2 43057  55.6320 256.8020 0004205 320.7655  39.2650  1.70473782 31136
GSAT0218 (GALILEO 22)   
1 43058U 17079D   22346.89128399  .00000000  00000+0  00000+0 0  9998
2 43058  55.6324 256.8095 0004545 297.9136  62.1015  1.70473875 31154
GOES 17                 
1 43226U 18022A   22344.60837576  .00000114  00000+0  00000+0 0  9991
2 43226   0.0455 135.6691 0000692 128.8942 256.4477  1.00272633 17552
GSAT0221 (GALILEO 25)   
1 43564U 18060A   22346.20323780 -.00000077  00000+0  00000+0 0  9992
2 43564  57.2284  16.3799 0005378 270.2450  89.7506  1.70476144 27299
